C/2007 K3 (Siding Spring),e,16.3527,263.2262,23.3294,1407,0.0000187,0.99855393,0.0000,04/20.2183/2008,2000,g  9.5,4.0
# From MPC 87475
C/2007 M1 (McNaught),e,139.6818,326.9155,52.6036,1237,0.0000227,0.99396645,0.0000,08/07.7807/2008,2000,g  6.0,4.0
# From MPC 68392
C/2007 M2 (Catalina),e,81.1206,357.2225,220.6767,1359,0.0000197,0.99739363,0.0000,12/09.5431/2008,2000,g  8.0,4.0
# From MPC 73461
C/2007 N3 (Lulin),e,178.3767,338.1835,136.6004,1236,0.0000227,0.99900722,0.0000,01/07.2041/2009,2000,g  6.5,4.0
# From MPC 60925
P/2007 Q2 (Gilmore),e,10.2268,172.2638,163.1112,5.619433,0.0739887,0.66989735,245.9289,09/10.0/2016,2000,g 16.0,4.0
# From MPC 78183
C/2007 Q3 (Siding Spring),h,10/07.7593/2009,65.7134,149.2933,2.2400,1.000479,2.260522,2000,4.5,4.0
# From MPC 75514
P/2007 R1 (Larson),e,7.8732,181.6733,175.2021,6.047676,0.0662707,0.27782318,219.7552,09/10.0/2016,2000,g  8.0,4.0
# From MPC 75708
P/2007 R2 (Gibbs),e,1.3076,11.2513,353.0458,3.532071,0.1484772,0.55840960,144.3647,09/10.0/2016,2000,g 17.0,4.0
# From MPC 75708
P/2007 R4 (Garradd),e,20.1961,87.3675,283.0922,5.876529,0.0691867,0.66907078,227.0718,09/10.0/2016,2000,g 14.5,4.0
# From MPC 73462
P/2007 S1 (Zhao),e,5.9732,141.5267,245.7693,3.798884,0.1331129,0.34317687,65.0954,09/10.0/2016,2000,g 13.0,4.0
# From MPC 82314
C/2007 S2 (Lemmon),e,16.8685,296.0639,210.6107,12.55871,0.0221456,0.55697949,64.6086,09/10.0/2016,2000,g  6.5,4.0
# From MPC 62270
C/2007 T1 (McNaught),e,117.5648,111.4447,233.7776,1788,0.0000130,0.99945461,0.0000,12/08.2470/2007,2000,g 10.5,4.0
# From MPC 61994
P/2007 T2 (Kowalski),e,9.9529,3.8597,358.6727,3.075170,0.1827681,0.78103218,235.4054,09/10.0/2016,2000,g 18.5,4.0
# From MPC 62879
P/2007 T4 (Gibbs),e,23.8616,37.0712,42.5223,5.241791,0.0821267,0.61813731,274.0407,09/10.0/2016,2000,g 13.0,4.0
# From MPC 65935
C/2007 T5 (Gibbs),e,45.6141,109.7747,34.5291,46.84345,0.0030742,0.91336456,9.3141,09/10.0/2016,2000,g  8.0,4.0
# From MPEC 2016-R19
P/2007 T6 (Catalina),e,22.1817,102.5163,335.8947,4.476944,0.1040475,0.50395096,343.5100,09/10.0/2016,2000,g 14.0,4.0
# From MPC 66921
C/2007 U1 (LINEAR),h,08/09.5608/2008,157.7475,50.4186,1.3708,1.001048,3.327329,2000,9.0,4.0
# From MPC 75708
P/2007 V1 (Larson),e,10.7603,7.9339,51.7197,4.972976,0.0888750,0.46222600,284.0726,09/10.0/2016,2000,g 12.0,4.0
# From MPC 75708
P/2007 VQ11 (Catalina),e,12.3264,163.8159,277.8680,5.412269,0.0782772,0.50306178,244.9825,09/10.0/2016,2000,g 12.0,4.0
# From MPC 81468
C/2007 VO53 (Spacewatch),h,04/26.0364/2010,86.9095,59.7082,75.1481,1.001305,4.851303,2000,7.0,4.0
# From MPC 63599
C/2007 W1 (Boattini),e,9.8835,334.8170,306.0869,1110,0.0000267,0.99924207,0.0000,06/23.2379/2008,2000,g  9.5,4.0
# From MPC 63376
C/2007 W3 (LINEAR),e,78.6454,72.8606,112.4490,3447,0.0000049,0.99948921,0.0000,06/04.4970/2008,2000,g 12.0,4.0
# From MPC 62271
C/2007 Y1 (LINEAR),e,110.1945,132.9975,357.2414,8803,0.0000012,0.99961816,0.0000,03/18.5358/2008,2000,g 10.5,4.0
# From MPC 62271
C/2007 Y2 (McNaught),e,98.5378,303.4472,257.7393,1019,0.0000303,0.99587526,0.0000,04/11.6266/2008,2000,g  9.0,4.0
# From MPC 65935
C/2008 A1 (McNaught),e,82.6494,277.8586,348.2625,2683,0.0000071,0.99960380,0.0000,09/27.7659/2008,2000,g  6.5,4.0
# From MPC 62582
C/2008 C1 (Chen-Gao),e,61.8820,307.6736,181.0459,8057,0.0000014,0.99984257,0.0000,04/18.0358/2008,2000,g 10.0,4.0
# From MPC 75708
P/2008 CL94 (Lemmon),e,8.3544,33.3535,81.3827,6.149866,0.0646258,0.12092829,240.6724,09/10.0/2016,2000,g  8.0,4.0
# From MPC 64113
C/2008 E1 (Catalina),e,34.8195,188.8125,270.7501,10.81585,0.0277085,0.55029282,81.7429,09/10.0/2016,2000,g  7.0,4.0
# From MPC 68392
C/2008 E3 (Garradd),e,105.1179,105.7127,217.9771,1151,0.0000252,0.99519887,0.0000,07/29.1291/2008,2000,g  6.0,4.0
# From MPC 88324
C/2008 FK75 (Lemmon-Siding Spring),h,09/29.1924/2010,61.2882,218.2783,80.3832,1.000211,4.506171,2000,5.0,4.0
# From MPC 82314
C/2008 G1 (Gibbs),e,73.0593,215.9221,63.6714,276.3122,0.0002146,0.98556589,0.0000,01/11.0456/2009,2000,g  9.5,4.0
# From MPC 63137
C/2008 H1 (LINEAR),e,75.3764,34.4328,96.0228,50.78669,0.0027232,0.94570077,8.4414,09/10.0/2016,2000,g 10.5,4.0
# From MPC 65054
C/2008 J1 (Boattini),e,61.8179,273.5102,68.1484,157.2092,0.0005000,0.98897435,0.0000,07/09.2054/2008,2000,g 10.0,4.0
# From MPC 63376
C/2008 J5 (Garradd),e,93.3046,287.0762,313.0432,68.16462,0.0017513,0.97151490,0.0000,04/01.9590/2008,2000,g 12.0,4.0
# From MPC 82314
C/2008 J6 (Hill),h,04/08.2767/2008,44.9777,298.2399,10.5439,1.000795,1.997237,2000,10.5,4.0
# From MPC 75709
P/2008 L2 (Hill),e,25.8308,218.0168,141.3872,6.020669,0.0667171,0.61187700,197.1099,09/10.0/2016,2000,g 12.5,4.0
# From MPC 68902
C/2008 N1 (Holmes),e,115.3895,357.3447,100.7202,857.7728,0.0000392,0.99674912,0.0000,09/23.0261/2009,2000,g  9.0,4.0
# From MPC 75709
P/2008 O2 (McNaught),e,9.5133,325.8451,27.0471,4.493939,0.1034578,0.15104590,280.2578,09/10.0/2016,2000,g  9.0,4.0
# From MPC 64114
P/2008 O3 (Boattini),e,32.1970,47.6279,341.2252,8.237362,0.0416890,0.69346576,126.2252,09/10.0/2016,2000,g 13.0,4.0
# From MPC 82314
C/2008 P1 (Garradd),e,64.2460,357.8111,11.7947,5492,0.0000024,0.99929042,0.0000,07/20.5963/2009,2000,g  7.0,4.0
# From MPC 65935
C/2008 Q1 (Maticic),e,118.5070,9.1274,104.2945,550.1649,0.0000764,0.99462251,0.0000,12/27.4233/2008,2000,g 10.0,4.0
# From MPC 80896
C/2008 Q3 (Garradd),e,140.8041,219.5102,340.6046,1254,0.0000222,0.99856220,0.0000,06/19.9891/2009,2000,g 10.0,4.0
# From MPC 75709
P/2008 QP20 (LINEAR-Hill),e,7.7293,324.9470,72.5581,3.498464,0.1506219,0.50660116,72.5061,09/10.0/2016,2000,g 15.5,4.0
# From MPC 64115
C/2008 R3 (LINEAR),e,43.2443,270.6591,84.1955,18.29271,0.0125976,0.89495733,35.9430,09/10.0/2016,2000,g 13.0,4.0
# From MPC 95207
C/2008 S3 (Boattini),h,06/09.6324/2011,162.6985,55.0488,40.1310,1.003383,8.010829,2000,4.0,4.0
# From MPEC 2016-Q54
P/2008 SH164 (LINEAR),e,2.7247,154.5182,196.5731,4.046086,0.1211020,0.21941114,6.7848,09/10.0/2016,2000,g 12.0,4.0
# From MPC 66921
C/2008 T2 (Cardinal),h,06/15.4170/2009,56.3618,309.6536,215.8617,1.000141,1.199446,2000,6.0,4.0
# From MPC 75710
P/2008 T4 (Hill),e,6.3089,44.6148,1.6081,4.463623,0.1045136,0.43423041,294.4935,09/10.0/2016,2000,g 13.5,4.0
# From MPC 66204
P/2008 WZ96 (LINEAR),e,6.9653,58.8187,338.3095,3.369169,0.1593749,0.51019406,85.0164,09/10.0/2016,2000,g 13.5,4.0
# From MPC 65057
C/2008 X3 (LINEAR),e,66.4981,337.5199,140.9683,43.62975,0.0034200,0.95614223,9.8918,09/10.0/2016,2000,g 13.0,4.0
# From MPC 65935
P/2008 Y1 (Boattini),e,8.9203,259.3368,162.8140,4.801908,0.0936663,0.73595029,257.3715,09/10.0/2016,2000,g 15.0,4.0
# From MPC 75710
P/2008 Y3 (McNaught),e,38.7992,262.8331,238.3733,8.033761,0.0432838,0.44805846,121.0455,09/10.0/2016,2000,g  8.5,4.0
# From MPC 88693
P/2008 Y12 (SOHO),e,23.5733,309.8585,144.3174,3.076690,0.1826326,0.97804861,0.0000,05/17.8413/2014,2000,g  9.0,4.0
# From MPC 75710
P/2009 B1 (Boattini),e,22.2290,297.0612,129.1805,6.725605,0.0565076,0.63543897,156.9816,09/10.0/2016,2000,g 13.0,4.0
# From MPC 82315
C/2009 B2 (LINEAR),e,156.9524,18.7123,192.4814,40.51280,0.0038222,0.94208376,10.4999,09/10.0/2016,2000,g 12.5,4.0
# From MPC 72850
C/2009 E1 (Itagaki),e,127.4150,105.9082,48.8415,40.34572,0.0038460,0.98529334,0.0000,04/10.0387/2009,2000,g 11.5,4.0
# From MPC 82315
C/2009 F1 (Larson),e,171.4052,357.9618,219.8543,96.07051,0.0010467,0.98073318,0.0000,06/24.7889/2009,2000,g 15.0,4.0
# From MPC 80256
C/2009 F2 (McNaught),e,59.3363,213.9195,336.3723,351.5796,0.0001495,0.98328689,0.0000,11/13.9716/2009,2000,g  6.0,4.0
# From MPC 95208
C/2009 F4 (McNaught),e,79.4280,53.5582,260.3831,6715,0.0000018,0.99918776,0.0000,12/31.6976/2011,2000,g  3.0,4.0
# From MPC 66204
C/2009 F5 (McNaught),e,84.9447,218.8051,297.2563,78.52747,0.0014164,0.97148280,0.0000,11/04.5968/2008,2000,g 10.0,4.0
# From MPC 72850
C/2009 F6 (Yi-SWAN),e,85.7060,278.7744,129.9919,507.9103,0.0000861,0.99745931,0.0000,05/05.5074/2009,2000,g  6.0,4.0
# From MPC 66466
C/2009 G1 (STEREO),e,108.2914,120.7082,175.2927,395.6251,0.0001253,0.99716763,0.0000,04/14.7028/2009,2000,g  9.0,4.0
# From MPC 82315
C/2009 K2 (Catalina),e,66.8290,123.7863,147.4675,828.8127,0.0000413,0.99610710,0.0000,02/07.8484/2010,2000,g 10.0,4.0
# From MPC 66703
C/2009 K4 (Gibbs),e,34.8378,29.7934,127.6733,42.21893,0.0035929,0.96336901,9.4783,09/10.0/2016,2000,g 13.0,4.0
# From MPC 82315
C/2009 K5 (McNaught),e,104.1270,257.9964,66.2001,1758,0.0000134,0.99918725,0.0000,04/27.7688/2010,2000,g  7.5,4.0
# From MPC 69905
C/2009 O2 (Catalina),e,107.9420,310.1830,133.5830,256.2362,0.0002403,0.99724342,0.0000,03/23.4852/2010,2000,g 11.0,4.0
# From MPC 75710
P/2009 O3 (Hill),e,16.2084,183.8272,154.3511,7.787098,0.0453566,0.68473116,121.4798,09/10.0/2016,2000,g 12.5,4.0
# From MPC 67147
C/2009 O4 (Hill),h,12/29.9997/2009,95.6467,172.9938,223.7213,1.000298,2.564897,2000,10.0,4.0
# From MPC 89309
C/2009 P1 (Garradd),e,106.1885,326.0240,90.7861,8439,0.0000013,0.99981546,0.0000,12/21.9105/2011,2000,g  4.0,4.0
# From MPC 76024
C/2009 P2 (Boattini),h,02/11.6970/2010,163.4265,60.4920,76.2148,1.001576,6.533173,2000,6.0,4.0
# From MPC 75710
P/2009 Q1 (Hill),e,14.5006,173.9440,157.3030,5.514142,0.0761180,0.49373061,201.1709,09/10.0/2016,2000,g 11.5,4.0
# From MPC 72850
P/2009 Q4 (Boattini),e,10.9796,127.5723,320.0919,3.134599,0.1775952,0.58026543,80.7430,09/10.0/2016,2000,g 15.5,4.0
# From MPC 68902
P/2009 Q5 (McNaught),e,40.8571,160.1785,209.2165,7.451840,0.0484517,0.60681518,124.3099,09/10.0/2016,2000,g 10.0,4.0
# From MPC 82315
C/2009 R1 (McNaught),h,07/02.1803/2010,77.0702,322.4233,130.9189,1.000391,0.412566,2000,8.0,4.0
# From MPC 75711
P/2009 S2 (McNaught),e,28.4148,121.5764,230.3949,4.169252,0.1157756,0.46891651,305.9111,09/10.0/2016,2000,g 14.0,4.0
# From MPC 87062
C/2009 S3 (Lemmon),e,60.4436,225.1629,129.7868,7717,0.0000015,0.99916127,0.0000,12/11.3511/2011,2000,g  6.5,4.0
# From MPC 78184
P/2009 SK280 (Spacewatch-Hill),e,16.8021,36.4235,327.9820,4.777780,0.0943767,0.11869943,252.4389,09/10.0/2016,2000,g 11.0,4.0
# From MPC 76567
